{
  "type": "FeatureCollection",
  "features": [
    {
      "type": "Feature",
      "properties": {
        "norad_id": 31937,
        "name": "FENGYUN 1C DEB",
        "group": "fengyun-1c-debris",
        "lat": 55.83599907240487,
        "lon": 77.06381180026818,
        "alt_km": 735.0743499526334,
        "timestamp": "2025-12-25T11:37:44.720460+00:00",
        "meta_object_name": "FENGYUN 1C DEB",
        "meta_object_id": "1999-025CMN",
        "meta_epoch": "2025-12-06T23:52:27.149088",
        "meta_mean_motion": 14.78022374,
        "meta_eccentricity": 0.0162921,
        "meta_inclination": 99.2561,
        "meta_ra_of_asc_node": 69.7316,
        "meta_arg_of_pericenter": 315.3928,
        "meta_mean_anomaly": 43.4262,
        "meta_ephemeris_type": 0,
        "meta_classification_type": "U",
        "meta_norad_cat_id": 31937,
        "meta_element_set_no": 999,
        "meta_rev_at_epoch": 65984,
        "meta_bstar": 0.0011794166,
        "meta_mean_motion_dot": 0.00010567,
        "meta_mean_motion_ddot": 0,
        "tle_line1": "1 31937U 99025CMN 25340.99475867  .00010567  00000+0  11794-2 0  9999",
        "tle_line2": "2 31937  99.2561  69.7316 0162921 315.3928  43.4262 14.78022374659842"
      },
      "geometry": {
        "type": "Point",
        "coordinates": [
          77.06381180026818,
          55.83599907240487
        ]
      }
    },
    {
      "type": "Feature",
      "properties": {
        "norad_id": 31938,
        "name": "FENGYUN 1C DEB",
        "group": "fengyun-1c-debris",
        "lat": 80.58461497709561,
        "lon": -38.75505776642952,
        "alt_km": 521.2309861993999,
        "timestamp": "2025-12-25T11:37:44.720470+00:00",
        "meta_object_name": "FENGYUN 1C DEB",
        "meta_object_id": "1999-025CMP",
        "meta_epoch": "2025-12-25T01:37:07.522752",
        "meta_mean_motion": 14.95750647,
        "meta_eccentricity": 0.0152272,
        "meta_inclination": 98.9279,
        "meta_ra_of_asc_node": 32.2117,
        "meta_arg_of_pericenter": 26.5882,
        "meta_mean_anomaly": 334.3043,
        "meta_ephemeris_type": 0,
        "meta_classification_type": "U",
        "meta_norad_cat_id": 31938,
        "meta_element_set_no": 999,
        "meta_rev_at_epoch": 99320,
        "meta_bstar": 0.0004083,
        "meta_mean_motion_dot": 5.665e-05,
        "meta_mean_motion_ddot": 0,
        "tle_line1": "1 31938U 99025CMP 25359.06744818  .00005665  00000+0  40830-3 0  9990",
        "tle_line2": "2 31938  98.9279  32.2117 0152272  26.5882 334.3043 14.95750647993207"
      },
      "geometry": {
        "type": "Point",
        "coordinates": [
          -38.75505776642952,
          80.58461497709561
        ]
      }
    },
    {
      "type": "Feature",
      "properties": {
        "norad_id": 31944,
        "name": "FENGYUN 1C DEB",
        "group": "fengyun-1c-debris",
        "lat": 69.87147585428887,
        "lon": 121.06672218237696,
        "alt_km": 870.1982875115718,
        "timestamp": "2025-12-25T11:37:44.720480+00:00",
        "meta_object_name": "FENGYUN 1C DEB",
        "meta_object_id": "1999-025CMV",
        "meta_epoch": "2025-12-12T04:22:40.814976",
        "meta_mean_motion": 14.11787529,
        "meta_eccentricity": 0.0151811,
        "meta_inclination": 99.2035,
        "meta_ra_of_asc_node": 133.6743,
        "meta_arg_of_pericenter": 5.8705,
        "meta_mean_anomaly": 173.5719,
        "meta_ephemeris_type": 0,
        "meta_classification_type": "U",
        "meta_norad_cat_id": 31944,
        "meta_element_set_no": 999,
        "meta_rev_at_epoch": 62902,
        "meta_bstar": 0.0007470391,
        "meta_mean_motion_dot": 1.471e-05,
        "meta_mean_motion_ddot": 0,
        "tle_line1": "1 31944U 99025CMV 25346.18241684  .00001471  00000+0  74704-3 0  9997",
        "tle_line2": "2 31944  99.2035 133.6743 0151811   5.8705 173.5719 14.11787529629027"
      },
      "geometry": {
        "type": "Point",
        "coordinates": [
          121.06672218237696,
          69.87147585428887
        ]
      }
    },
    {
      "type": "Feature",
      "properties": {
        "norad_id": 31945,
        "name": "FENGYUN 1C DEB",
        "group": "fengyun-1c-debris",
        "lat": 67.57840692911219,
        "lon": -81.52760999830674,
        "alt_km": 849.5873984921172,
        "timestamp": "2025-12-25T11:37:44.720490+00:00",
        "meta_object_name": "FENGYUN 1C DEB",
        "meta_object_id": "1999-025CMW",
        "meta_epoch": "2025-12-21T04:00:39.791808",
        "meta_mean_motion": 14.20849644,
        "meta_eccentricity": 0.00615069,
        "meta_inclination": 98.9584,
        "meta_ra_of_asc_node": 71.6209,
        "meta_arg_of_pericenter": 262.904,
        "meta_mean_anomaly": 96.514,
        "meta_ephemeris_type": 0,
        "meta_classification_type": "U",
        "meta_norad_cat_id": 31945,
        "meta_element_set_no": 999,
        "meta_rev_at_epoch": 95315,
        "meta_bstar": 0.0010233525,
        "meta_mean_motion_dot": 2.209e-05,
        "meta_mean_motion_ddot": 0,
        "tle_line1": "1 31945U 99025CMW 25355.16712722  .00002209  00000+0  10234-2 0  9999",
        "tle_line2": "2 31945  98.9584  71.6209 0061506 262.9040  96.5140 14.20849644953153"
      },
      "geometry": {
        "type": "Point",
        "coordinates": [
          -81.52760999830674,
          67.57840692911219
        ]
      }
    },
    {
      "type": "Feature",
      "properties": {
        "norad_id": 31946,
        "name": "FENGYUN 1C DEB",
        "group": "fengyun-1c-debris",
        "lat": 33.50744407202057,
        "lon": -114.34309978609491,
        "alt_km": 875.0276465927718,
        "timestamp": "2025-12-25T11:37:44.720500+00:00",
        "meta_object_name": "FENGYUN 1C DEB",
        "meta_object_id": "1999-025CMX",
        "meta_epoch": "2025-12-23T21:39:03.195648",
        "meta_mean_motion": 14.16487077,
        "meta_eccentricity": 0.0081473,
        "meta_inclination": 98.8969,
        "meta_ra_of_asc_node": 58.1228,
        "meta_arg_of_pericenter": 17.293,
        "meta_mean_anomaly": 343.099,
        "meta_ephemeris_type": 0,
        "meta_classification_type": "U",
        "meta_norad_cat_id": 31946,
        "meta_element_set_no": 999,
        "meta_rev_at_epoch": 64166,
        "meta_bstar": 0.0012861,
        "meta_mean_motion_dot": 2.6e-05,
        "meta_mean_motion_ddot": 0,
        "tle_line1": "1 31946U 99025CMX 25357.90212032  .00002600  00000+0  12861-2 0  9996",
        "tle_line2": "2 31946  98.8969  58.1228 0081473  17.2930 343.0990 14.16487077641661"
      },
      "geometry": {
        "type": "Point",
        "coordinates": [
          -114.34309978609491,
          33.50744407202057
        ]
      }
    },
    {
      "type": "Feature",
      "properties": {
        "norad_id": 31948,
        "name": "FENGYUN 1C DEB",
        "group": "fengyun-1c-debris",
        "lat": -7.670000847438234,
        "lon": 62.150384561838784,
        "alt_km": 784.3423158029209,
        "timestamp": "2025-12-25T11:37:44.720510+00:00",
        "meta_object_name": "FENGYUN 1C DEB",
        "meta_object_id": "1999-025CMZ",
        "meta_epoch": "2025-12-18T10:10:15.056832",
        "meta_mean_motion": 14.28329763,
        "meta_eccentricity": 0.00234205,
        "meta_inclination": 99.3923,
        "meta_ra_of_asc_node": 53.282,
        "meta_arg_of_pericenter": 5.6805,
        "meta_mean_anomaly": 59.9549,
        "meta_ephemeris_type": 0,
        "meta_classification_type": "U",
        "meta_norad_cat_id": 31948,
        "meta_element_set_no": 999,
        "meta_rev_at_epoch": 95109,
        "meta_bstar": 0.0011732562,
        "meta_mean_motion_dot": 2.889e-05,
        "meta_mean_motion_ddot": 0,
        "tle_line1": "1 31948U 99025CMZ 25352.42378538  .00002889  00000+0  11733-2 0  9990",
        "tle_line2": "2 31948  99.3923  53.2820 0023420   5.6805  59.9549 14.28329763951097"
      },
      "geometry": {
        "type": "Point",
        "coordinates": [
          62.150384561838784,
          -7.670000847438234
        ]
      }
    },
    {
      "type": "Feature",
      "properties": {
        "norad_id": 31949,
        "name": "FENGYUN 1C DEB",
        "group": "fengyun-1c-debris",
        "lat": 9.133380766817108,
        "lon": -16.88314144493195,
        "alt_km": 925.7863951317768,
        "timestamp": "2025-12-25T11:37:44.720520+00:00",
        "meta_object_name": "FENGYUN 1C DEB",
        "meta_object_id": "1999-025CNA",
        "meta_epoch": "2025-12-23T05:21:04.784256",
        "meta_mean_motion": 14.16925991,
        "meta_eccentricity": 0.01261914,
        "meta_inclination": 98.5469,
        "meta_ra_of_asc_node": 342.3284,
        "meta_arg_of_pericenter": 182.1147,
        "meta_mean_anomaly": 177.951,
        "meta_ephemeris_type": 0,
        "meta_classification_type": "U",
        "meta_norad_cat_id": 31949,
        "meta_element_set_no": 999,
        "meta_rev_at_epoch": 95653,
        "meta_bstar": 0.00025831817,
        "meta_mean_motion_dot": 5.19e-06,
        "meta_mean_motion_ddot": 0,
        "tle_line1": "1 31949U 99025CNA 25357.22297204  .00000519  00000+0  25832-3 0  9998",
        "tle_line2": "2 31949  98.5469 342.3284 0126191 182.1147 177.9510 14.16925991956534"
      },
      "geometry": {
        "type": "Point",
        "coordinates": [
          -16.88314144493195,
          9.133380766817108
        ]
      }
    }
  ]
}